ONEWEB-0196             
1 48218U 21031J   25303.49356068 -.00000072  00000+0 -22809-3 0  9998
2 48218  87.9012 335.4697 0001972  92.4599 267.6757 13.14504742218053
ONEWEB-0183             
1 48219U 21031K   25303.54432268  .00000262  00000+0  67169-3 0  9999
2 48219  87.9004 335.4668 0001699  91.4375 268.6950 13.14504392218158
ONEWEB-0185             
1 48220U 21031L   25303.49436985 -.00000132  00000+0 -38954-3 0  9993
2 48220  87.9015 335.4464 0001893  85.0142 275.1204 13.14501317218073
ONEWEB-0187             
1 48221U 21031M   25303.47439489  .00000222  00000+0  56481-3 0  9997
2 48221  87.9009 335.4961 0002005  88.7389 271.3971 13.14505193218084
ONEWEB-0192             
1 48222U 21031N   25303.52053372  .00000010  00000+0 -74915-5 0  9997
2 48222  87.9004 335.4787 0001948  95.5893 264.5459 13.14504160218007
ONEWEB-0219             
1 48223U 21031P   25303.49991066 -.00000171  00000+0 -49485-3 0  9996
2 48223  87.9015 335.4572 0001917  87.1854 272.9495 13.14503958218201
ONEWEB-0202             
1 48224U 21031Q   25303.48090435  .00000121  00000+0  29312-3 0  9996
2 48224  87.9011 335.4746 0002625  95.7579 264.3850 13.14502987218185
ONEWEB-0204             
1 48225U 21031R   25303.51496809 -.00000151  00000+0 -44084-3 0  9994
2 48225  87.9008 335.4559 0001573  91.0455 269.0855 13.14504080218089
